start=new Date('2023-04-12T00:00:00.000Z').valueOf();
sats=[{"TLE_LINE2":"2 55712  43.0006  27.5911 0001134 258.3846 101.6894 15.71345595  7893","COUNTRY_CODE":"US","PERIAPSIS":"354.289","REF_FRAME":"TEME","OBJECT_NAME":"STARLINK-30037","EPOCH":"2023-04-11T16:03:10.981440","MEAN_ANOMALY":"101.6894","RA_OF_ASC_NODE":"27.5911","TIME_SYSTEM":"UTC","ELEMENT_SET_NO":"999","INCLINATION":"43.0006","RCS_SIZE":"LARGE","SITE":"AFETR","CLASSIFICATION_TYPE":"U","TLE_LINE1":"1 55712U 23026T   23101.66887710 -.00000981  00000-0 -40410-5 0  9997","MEAN_MOTION":"15.71345595","FILE":"3885919","PERIOD":"91.641","ECCENTRICITY":"0.00011340","LAUNCH_DATE":"2023-02-27","DECAY_DATE":null,"MEAN_MOTION_DDOT":"0.0000000000000","OBJECT_TYPE":"PAYLOAD","APOAPSIS":"355.816","MEAN_MOTION_DOT":"-0.00000981","SEMIMAJOR_AXIS":"6733.187","ARG_OF_PERICENTER":"258.3846","OBJECT_ID":"2023-026T","GP_ID":"229949364","CENTER_NAME":"EARTH","BSTAR":"-0.00000404100000","NORAD_CAT_ID":"55712","MEAN_ELEMENT_THEORY":"SGP4","EPHEMERIS_TYPE":"0","REV_AT_EPOCH":"789"},{"REF_FRAME":"TEME","OBJECT_NAME":"STARLINK-30063","PERIAPSIS":"354.482","TLE_LINE2":"2 55713  43.0018  26.8301 0000592 289.9059  70.1745 15.71405835  7917","COUNTRY_CODE":"US","RCS_SIZE":"LARGE","ELEMENT_SET_NO":"999","INCLINATION":"43.0018","EPOCH":"2023-04-11T19:07:06.577824","TIME_SYSTEM":"UTC","RA_OF_ASC_NODE":"26.8301","MEAN_ANOMALY":"70.1745","TLE_LINE1":"1 55713U 23026U   23101.79660391  .00028400  00000-0  21882-3 0  9990","FILE":"3885919","MEAN_MOTION":"15.71405835","CLASSIFICATION_TYPE":"U","SITE":"AFETR","ECCENTRICITY":"0.00005920","DECAY_DATE":null,"LAUNCH_DATE":"2023-02-27","PERIOD":"91.638","OBJECT_TYPE":"PAYLOAD","APOAPSIS":"355.279","MEAN_MOTION_DDOT":"0.0000000000000","SEMIMAJOR_AXIS":"6733.015","MEAN_MOTION_DOT":"0.00028400","BSTAR":"0.00021882000000","CENTER_NAME":"EARTH","GP_ID":"229948129","ARG_OF_PERICENTER":"289.9059","OBJECT_ID":"2023-026U","REV_AT_EPOCH":"791","EPHEMERIS_TYPE":"0","MEAN_ELEMENT_THEORY":"SGP4","NORAD_CAT_ID":"55713"},{"OBJECT_NAME":"STARLINK-30059","REF_FRAME":"TEME","PERIAPSIS":"353.266","TLE_LINE2":"2 55714  42.9997  30.6624 0002482 288.5131  71.5467 15.71385885  7816","COUNTRY_CODE":"US","RCS_SIZE":"LARGE","INCLINATION":"42.9997","ELEMENT_SET_NO":"999","RA_OF_ASC_NODE":"30.6624","TIME_SYSTEM":"UTC","MEAN_ANOMALY":"71.5467","EPOCH":"2023-04-11T03:51:22.581792","FILE":"3885783","MEAN_MOTION":"15.71385885","TLE_LINE1":"1 55714U 23026V   23101.16067803  .00153158  00000-0  11485-2 0  9997","CLASSIFICATION_TYPE":"U","SITE":"AFETR","LAUNCH_DATE":"2023-02-27","DECAY_DATE":null,"ECCENTRICITY":"0.00024820","PERIOD":"91.639","APOAPSIS":"356.608","OBJECT_TYPE":"PAYLOAD","MEAN_MOTION_DDOT":"0.0000000000000","SEMIMAJOR_AXIS":"6733.072","MEAN_MOTION_DOT":"0.00153158","BSTAR":"0.00114850000000","CENTER_NAME":"EARTH","GP_ID":"229918770","ARG_OF_PERICENTER":"288.5131","OBJECT_ID":"2023-026V","REV_AT_EPOCH":"781","EPHEMERIS_TYPE":"0","MEAN_ELEMENT_THEORY":"SGP4","NORAD_CAT_ID":"55714"},{"PERIOD":"93.290","ECCENTRICITY":"0.00032710","LAUNCH_DATE":"2023-03-03","DECAY_DATE":null,"SITE":"AFWTR","TLE_LINE1":"1 55741U 23028A   23101.50001157 -.00952213  00000-0 -23053-1 0  9991","MEAN_MOTION":"15.43581396","FILE":"3885804","CLASSIFICATION_TYPE":"U","EPOCH":"2023-04-11T12:00:00.999648","RA_OF_ASC_NODE":"47.3538","MEAN_ANOMALY":"281.0933","TIME_SYSTEM":"UTC","RCS_SIZE":"LARGE","ELEMENT_SET_NO":"999","INCLINATION":"70.0017","PERIAPSIS":"433.323","COUNTRY_CODE":"US","TLE_LINE2":"2 55741  70.0017  47.3538 0003271 269.7425 281.0933 15.43581396  6723","REF_FRAME":"TEME","OBJECT_NAME":"STARLINK-5592","EPHEMERIS_TYPE":"0","MEAN_ELEMENT_THEORY":"SGP4","NORAD_CAT_ID":"55741","REV_AT_EPOCH":"672","GP_ID":"229920387","ARG_OF_PERICENTER":"269.7425","OBJECT_ID":"2023-028A","BSTAR":"-0.02305300000000","CENTER_NAME":"EARTH","MEAN_MOTION_DOT":"-0.00952213","SEMIMAJOR_AXIS":"6813.687","MEAN_MOTION_DDOT":"0.0000000000000","OBJECT_TYPE":"PAYLOAD","APOAPSIS":"437.780"},{"BSTAR":"-0.02335400000000","CENTER_NAME":"EARTH","GP_ID":"229918773","OBJECT_ID":"2023-028B","ARG_OF_PERICENTER":"268.7922","REV_AT_EPOCH":"130","EPHEMERIS_TYPE":"0","MEAN_ELEMENT_THEORY":"SGP4","NORAD_CAT_ID":"55742","OBJECT_TYPE":"PAYLOAD","APOAPSIS":"438.802","MEAN_MOTION_DDOT":"0.0000000000000","SEMIMAJOR_AXIS":"6814.706","MEAN_MOTION_DOT":"-0.00953298","TLE_LINE1":"1 55742U 23028B   23101.50001157 -.00953298  00000-0 -23354-1 0  9990","FILE":"3885783","MEAN_MOTION":"15.43234982","CLASSIFICATION_TYPE":"U","SITE":"AFWTR","ECCENTRICITY":"0.00032730","DECAY_DATE":null,"LAUNCH_DATE":"2023-03-03","PERIOD":"93.310","REF_FRAME":"TEME","OBJECT_NAME":"STARLINK-5594","PERIAPSIS":"434.341","TLE_LINE2":"2 55742  70.0017  47.3625 0003273 268.7922 274.4840 15.43234982  1302","COUNTRY_CODE":"US","RCS_SIZE":"LARGE","ELEMENT_SET_NO":"999","INCLINATION":"70.0017","EPOCH":"2023-04-11T12:00:00.999648","RA_OF_ASC_NODE":"47.3625","TIME_SYSTEM":"UTC","MEAN_ANOMALY":"274.4840"},{"ECCENTRICITY":"0.00032880","DECAY_DATE":null,"LAUNCH_DATE":"2023-03-03","PERIOD":"93.333","TLE_LINE1":"1 55743U 23028C   23101.50001157 -.00956822  00000-0 -23740-1 0  9996","MEAN_MOTION":"15.42868641","FILE":"3885820","CLASSIFICATION_TYPE":"U","SITE":"AFWTR","RCS_SIZE":"LARGE","ELEMENT_SET_NO":"999","INCLINATION":"70.0017","EPOCH":"2023-04-11T12:00:00.999648","RA_OF_ASC_NODE":"47.3705","MEAN_ANOMALY":"265.2651","TIME_SYSTEM":"UTC","REF_FRAME":"TEME","OBJECT_NAME":"STARLINK-5602","PERIAPSIS":"435.409","TLE_LINE2":"2 55743  70.0017  47.3705 0003288 271.1931 265.2651 15.42868641  6729","COUNTRY_CODE":"US","REV_AT_EPOCH":"672","MEAN_ELEMENT_THEORY":"SGP4","EPHEMERIS_TYPE":"0","NORAD_CAT_ID":"55743","BSTAR":"-0.02374000000000","CENTER_NAME":"EARTH","GP_ID":"229920139","OBJECT_ID":"2023-028C","ARG_OF_PERICENTER":"271.1931","SEMIMAJOR_AXIS":"6815.785","MEAN_MOTION_DOT":"-0.00956822","OBJECT_TYPE":"PAYLOAD","APOAPSIS":"439.891","MEAN_MOTION_DDOT":"0.0000000000000"},{"CLASSIFICATION_TYPE":"U","FILE":"3885820","MEAN_MOTION":"15.43418942","TLE_LINE1":"1 55744U 23028D   23101.50001157 -.00958233  00000-0 -23340-1 0  9991","SITE":"AFWTR","DECAY_DATE":null,"LAUNCH_DATE":"2023-03-03","ECCENTRICITY":"0.00032670","PERIOD":"93.299","OBJECT_NAME":"STARLINK-5601","REF_FRAME":"TEME","COUNTRY_CODE":"US","TLE_LINE2":"2 55744  70.0018  47.3581 0003267 269.8198 277.3790 15.43418942  6723","PERIAPSIS":"433.803","INCLINATION":"70.0018","ELEMENT_SET_NO":"999","RCS_SIZE":"LARGE","RA_OF_ASC_NODE":"47.3581","MEAN_ANOMALY":"277.3790","TIME_SYSTEM":"UTC","EPOCH":"2023-04-11T12:00:00.999648","CENTER_NAME":"EARTH","BSTAR":"-0.02334000000000","ARG_OF_PERICENTER":"269.8198","OBJECT_ID":"2023-028D","GP_ID":"229920137","REV_AT_EPOCH":"672","NORAD_CAT_ID":"55744","EPHEMERIS_TYPE":"0","MEAN_ELEMENT_THEORY":"SGP4","APOAPSIS":"438.256","OBJECT_TYPE":"PAYLOAD","MEAN_MOTION_DDOT":"0.0000000000000","SEMIMAJOR_AXIS":"6814.165","MEAN_MOTION_DOT":"-0.00958233"},{"MEAN_MOTION_DDOT":"0.0000000000000","APOAPSIS":"440.264","OBJECT_TYPE":"PAYLOAD","MEAN_MOTION_DOT":"-0.00953627","SEMIMAJOR_AXIS":"6816.201","GP_ID":"229918024","OBJECT_ID":"2023-028E","ARG_OF_PERICENTER":"270.6972","BSTAR":"-0.02376700000000","CENTER_NAME":"EARTH","EPHEMERIS_TYPE":"0","MEAN_ELEMENT_THEORY":"SGP4","NORAD_CAT_ID":"55745","REV_AT_EPOCH":"130","PERIAPSIS":"435.867","TLE_LINE2":"2 55745  70.0017  47.3742 0003225 270.6972 262.3165 15.42727450  1301","COUNTRY_CODE":"US","OBJECT_NAME":"STARLINK-5565","REF_FRAME":"TEME","TIME_SYSTEM":"UTC","RA_OF_ASC_NODE":"47.3742","MEAN_ANOMALY":"262.3165","EPOCH":"2023-04-11T12:00:00.999648","RCS_SIZE":"LARGE","INCLINATION":"70.0017","ELEMENT_SET_NO":"999","SITE":"AFWTR","MEAN_MOTION":"15.42727450","FILE":"3885783","TLE_LINE1":"1 55745U 23028E   23101.50001157 -.00953627  00000-0 -23767-1 0  9997","CLASSIFICATION_TYPE":"U","PERIOD":"93.341","DECAY_DATE":null,"LAUNCH_DATE":"2023-03-03","ECCENTRICITY":"0.00032250"},{"CLASSIFICATION_TYPE":"U","TLE_LINE1":"1 55746U 23028F   23101.50001157 -.00952527  00000-0 -22120-1 0  9998","FILE":"3885783","MEAN_MOTION":"15.44805064","SITE":"AFWTR","ECCENTRICITY":"0.00032830","DECAY_DATE":null,"LAUNCH_DATE":"2023-03-03","PERIOD":"93.216","REF_FRAME":"TEME","OBJECT_NAME":"STARLINK-5579","TLE_LINE2":"2 55746  70.0018  47.3264 0003283 269.7271 304.6376 15.44805064  1301","COUNTRY_CODE":"US","PERIAPSIS":"429.717","ELEMENT_SET_NO":"999","INCLINATION":"70.0018","RCS_SIZE":"LARGE","EPOCH":"2023-04-11T12:00:00.999648","TIME_SYSTEM":"UTC","RA_OF_ASC_NODE":"47.3264","MEAN_ANOMALY":"304.6376","CENTER_NAME":"EARTH","BSTAR":"-0.02212000000000","ARG_OF_PERICENTER":"269.7271","OBJECT_ID":"2023-028F","GP_ID":"229918274","REV_AT_EPOCH":"130","NORAD_CAT_ID":"55746","EPHEMERIS_TYPE":"0","MEAN_ELEMENT_THEORY":"SGP4","OBJECT_TYPE":"PAYLOAD","APOAPSIS":"434.189","MEAN_MOTION_DDOT":"0.0000000000000","SEMIMAJOR_AXIS":"6810.088","MEAN_MOTION_DOT":"-0.00952527"},{"EPOCH":"2023-04-11T12:00:00.999648","TIME_SYSTEM":"UTC","MEAN_ANOMALY":"287.1832","RA_OF_ASC_NODE":"47.3447","RCS_SIZE":"LARGE","ELEMENT_SET_NO":"999","INCLINATION":"70.0017","PERIAPSIS":"432.152","COUNTRY_CODE":"US","TLE_LINE2":"2 55747  70.0017  47.3447 0003313 271.5299 287.1832 15.43969659  1301","REF_FRAME":"TEME","OBJECT_NAME":"STARLINK-5539","PERIOD":"93.266","ECCENTRICITY":"0.00033130","LAUNCH_DATE":"2023-03-03","DECAY_DATE":null,"SITE":"AFWTR","TLE_LINE1":"1 55747U 23028G   23101.50001157 -.00954719  00000-0 -22816-1 0  9996","FILE":"3885783","MEAN_MOTION":"15.43969659","CLASSIFICATION_TYPE":"U","MEAN_MOTION_DOT":"-0.00954719","SEMIMAJOR_AXIS":"6812.544","MEAN_MOTION_DDOT":"0.0000000000000","OBJECT_TYPE":"PAYLOAD","APOAPSIS":"436.666","MEAN_ELEMENT_THEORY":"SGP4","EPHEMERIS_TYPE":"0","NORAD_CAT_ID":"55747","REV_AT_EPOCH":"130","GP_ID":"229919525","ARG_OF_PERICENTER":"271.5299","OBJECT_ID":"2023-028G","BSTAR":"-0.02281600000000","CENTER_NAME":"EARTH"}];
